     2              NAVIGATION DATA                         RINEX VERSION / TYPE
CCRINEXN V1.6.0 UX  CDDIS               29-NOV-16 15:33     PGM / RUN BY / DATE 
IGS BROADCAST EPHEMERIS FILE                                COMMENT             
    0.1024D-07 -0.1490D-07 -0.5960D-07  0.1192D-06          ION ALPHA           
    0.9830D+05 -0.1475D+06 -0.1966D+06  0.8520D+06          ION BETA            
   -0.186264514923D-08-0.177635683940D-14   233472     1925 DELTA-UTC: A0,A1,T,W
    17                                                      LEAP SECONDS        
                                                            END OF HEADER       
23 16 11 28 20  0  0.0-0.198150519282D-03-0.113686837722D-11 0.000000000000D+00
    0.150000000000D+02 0.256875000000D+02 0.476234122777D-08 0.109455124146D+01
    0.158324837685D-05 0.111340672011D-01 0.116582959890D-04 0.515358583069D+04
    0.158400000000D+06-0.931322574615D-07 0.282498585431D+01 0.109896063805D-06
    0.945457821062D+00 0.148781250000D+03-0.252098052164D+01-0.813426739632D-08
   -0.511449875369D-09 0.100000000000D+01 0.192500000000D+04 0.000000000000D+00
    0.200000000000D+01 0.000000000000D+00-0.200234353542D-07 0.150000000000D+02
    0.151200000000D+06 0.400000000000D+01 0.000000000000D+00 0.000000000000D+00
24 16 11 28 20  0  0.0-0.267536379397D-04-0.568434188608D-12 0.000000000000D+00
    0.410000000000D+02 0.116937500000D+03 0.491877631535D-08 0.495373580401D+00
    0.615604221821D-05 0.507928419393D-02 0.462681055069D-05 0.515371853447D+04
    0.158400000000D+06 0.596046447754D-07-0.243399111899D+01 0.931322574615D-07
    0.947572131211D+00 0.279312500000D+03 0.402231594880D+00-0.842642242289D-08
    0.162506769059D-09 0.100000000000D+01 0.192500000000D+04 0.000000000000D+00
    0.200000000000D+01 0.000000000000D+00 0.232830643654D-08 0.410000000000D+02
    0.153210000000D+06 0.400000000000D+01 0.000000000000D+00 0.000000000000D+00
25 16 11 28 20  0  0.0-0.290294643492D-03-0.682121026330D-11 0.000000000000D+00
    0.180000000000D+02-0.687187500000D+02 0.429553606918D-08-0.157275945168D+01
   -0.349432229996D-05 0.573798175901D-02 0.210851430893D-05 0.515366548347D+04
    0.158400000000D+06 0.875443220139D-07-0.135601838349D+01-0.633299350738D-07
    0.977764258777D+00 0.348843750000D+03 0.758717647795D+00-0.818034074403D-08
   -0.271797035723D-09 0.100000000000D+01 0.192500000000D+04 0.000000000000D+00
    0.200000000000D+01 0.000000000000D+00 0.558793544769D-08 0.180000000000D+02
    0.151218000000D+06 0.400000000000D+01 0.000000000000D+00 0.000000000000D+00
26 16 11 28 20  0  0.0-0.505891628563D-03-0.386535248253D-11 0.000000000000D+00
    0.750000000000D+02-0.624375000000D+02 0.477555606394D-08-0.191120092357D+01
   -0.317767262459D-05 0.130379071925D-02 0.150874257088D-05 0.515361346054D+04
    0.158400000000D+06-0.745058059692D-08-0.136827152054D+01 0.726431608200D-07
    0.959640999094D+00 0.351937500000D+03-0.200917419165D+00-0.846963850873D-08
   -0.204651381694D-09 0.100000000000D+01 0.192500000000D+04 0.000000000000D+00
    0.200000000000D+01 0.000000000000D+00 0.745058059692D-08 0.750000000000D+02
    0.151200000000D+06 0.400000000000D+01 0.000000000000D+00 0.000000000000D+00
27 16 11 28 20  0  0.0 0.171883497387D-03 0.534328137292D-11 0.000000000000D+00
    0.290000000000D+02-0.105000000000D+03 0.380480134239D-08 0.239583678182D+01
   -0.534951686859D-05 0.396885757800D-02 0.105369836092D-04 0.515366501617D+04
    0.158400000000D+06-0.484287738800D-07-0.315634445910D+00-0.223517417908D-07
    0.973577017116D+00 0.182281250000D+03 0.305648594896D+00-0.765603319023D-08
    0.246438836595D-10 0.100000000000D+01 0.192500000000D+04 0.000000000000D+00
    0.200000000000D+01 0.000000000000D+00 0.139698386192D-08 0.290000000000D+02
    0.151200000000D+06 0.400000000000D+01 0.000000000000D+00 0.000000000000D+00
28 16 11 28 20  0  0.0 0.570432282984D-03 0.272848410532D-11 0.000000000000D+00
    0.109000000000D+03-0.787500000000D+02 0.391516308226D-08-0.308190050939D+01
   -0.400096178055D-05 0.201272642007D-01 0.191666185856D-05 0.515363675118D+04
    0.158400000000D+06 0.281259417534D-06-0.127928622217D+01-0.186264514923D-07
    0.988961999906D+00 0.356406250000D+03-0.159796854964D+01-0.769782064513D-08
   -0.250010413937D-09 0.100000000000D+01 0.192500000000D+04 0.000000000000D+00
    0.400000000000D+01 0.000000000000D+00-0.111758708954D-07 0.109000000000D+03
    0.151200000000D+06 0.400000000000D+01 0.000000000000D+00 0.000000000000D+00
29 16 11 28 20  0  0.0 0.641338061541D-03-0.193267624127D-11 0.000000000000D+00
    0.900000000000D+02-0.839062500000D+02 0.366122393324D-08-0.173686053757D+01
   -0.427477061748D-05 0.501060974784D-03 0.114869326353D-04 0.515371828461D+04
    0.158400000000D+06-0.558793544769D-07-0.254774498095D+00 0.428408384323D-07
    0.979710264591D+00 0.167062500000D+03-0.129063836553D+00-0.754388566169D-08
    0.892894335490D-10 0.100000000000D+01 0.192500000000D+04 0.000000000000D+00
    0.200000000000D+01 0.000000000000D+00-0.102445483208D-07 0.900000000000D+02
    0.151200000000D+06 0.400000000000D+01 0.000000000000D+00 0.000000000000D+00
30 16 11 28 20  0  0.0 0.158121343702D-03 0.795807864051D-12 0.000000000000D+00
    0.610000000000D+02 0.109812500000D+03 0.474091176372D-08-0.453641217715D+00
    0.560656189919D-05 0.235463411082D-02 0.455044209957D-05 0.515374944878D+04
    0.158400000000D+06 0.204890966415D-07-0.234212436793D+01-0.279396772385D-07
    0.950211013063D+00 0.286000000000D+03-0.313655154468D+01-0.832641825731D-08
    0.195008122871D-09 0.100000000000D+01 0.192500000000D+04 0.000000000000D+00
    0.200000000000D+01 0.000000000000D+00 0.372529029846D-08 0.610000000000D+02
    0.151200000000D+06 0.400000000000D+01 0.000000000000D+00 0.000000000000D+00
31 16 11 28 20  0  0.0 0.234087929130D-03-0.216004991671D-11 0.000000000000D+00
    0.510000000000D+02 0.114906250000D+03 0.441768399639D-08-0.599458020530D+00
    0.593066215515D-05 0.850723963231D-02 0.493228435516D-05 0.515360327148D+04
    0.158400000000D+06 0.521540641785D-07-0.237346642372D+01-0.182539224625D-06
    0.969253763573D+00 0.290000000000D+03-0.346524114760D+00-0.822677126422D-08
    0.285726192706D-09 0.100000000000D+01 0.192500000000D+04 0.000000000000D+00
    0.200000000000D+01 0.000000000000D+00-0.135041773319D-07 0.510000000000D+02
    0.151200000000D+06 0.000000000000D+00 0.000000000000D+00 0.000000000000D+00
32 16 11 28 20  0  0.0-0.218311790377D-03-0.162572177942D-10 0.000000000000D+00
    0.870000000000D+02 0.389375000000D+02 0.431339395589D-08 0.302172263104D+01
    0.200979411602D-05 0.594872515649D-03 0.116210430860D-04 0.515367495918D+04
    0.158400000000D+06-0.186264514923D-08 0.282378292896D+01-0.372529029846D-07
    0.959108056575D+00 0.153500000000D+03-0.258855550629D+01-0.776032324861D-08
   -0.401088135502D-09 0.100000000000D+01 0.192500000000D+04 0.000000000000D+00
    0.200000000000D+01 0.000000000000D+00 0.465661287308D-09 0.870000000000D+02
    0.151950000000D+06 0.400000000000D+01 0.000000000000D+00 0.000000000000D+00
10 16 11 28 21 59 44.0-0.115489121526D-03-0.795807864051D-12 0.000000000000D+00
    0.500000000000D+01-0.225312500000D+02 0.492949104737D-08-0.784590189354D+00
   -0.117905437946D-05 0.193236279301D-02 0.544264912605D-05 0.515366828156D+04
    0.165584000000D+06 0.335276126862D-07 0.177981758798D+01 0.111758708954D-07
    0.959220073675D+00 0.272406250000D+03-0.295096591514D+01-0.817176895841D-08
   -0.242510101519D-09 0.100000000000D+01 0.192500000000D+04 0.000000000000D+00
    0.200000000000D+01 0.000000000000D+00 0.232830643654D-08 0.500000000000D+01
    0.163380000000D+06 0.400000000000D+01 0.000000000000D+00 0.000000000000D+00
14 16 11 28 21 59 44.0-0.471472740173D-04-0.170530256582D-11 0.000000000000D+00
    0.000000000000D+00 0.548125000000D+02 0.413660087746D-08 0.296608847091D+01
    0.278837978840D-05 0.865896348841D-02 0.117607414722D-04 0.515361402130D+04
    0.165584000000D+06 0.819563865662D-07 0.290664024343D+01-0.143423676491D-06
    0.963339776797D+00 0.151406250000D+03-0.194596265716D+01-0.756460081027D-08
   -0.328227957726D-09 0.100000000000D+01 0.192500000000D+04 0.000000000000D+00
    0.200000000000D+01 0.000000000000D+00-0.931322574616D-08 0.000000000000D+00
    0.158910000000D+06 0.400000000000D+01 0.000000000000D+00 0.000000000000D+00
28 16 11 28 21 59 44.0 0.570454634726D-03 0.284217094304D-11 0.000000000000D+00
    0.200000000000D+01-0.711250000000D+02 0.395837916810D-08-0.203406706233D+01
   -0.343471765518D-05 0.201281853951D-01 0.169686973095D-05 0.515363465309D+04
    0.165584000000D+06 0.379979610443D-06-0.127934123813D+01 0.191852450371D-06
    0.988959950357D+00 0.359468750000D+03-0.159793620599D+01-0.779782481070D-08
   -0.297155234851D-09 0.100000000000D+01 0.192500000000D+04 0.000000000000D+00
    0.200000000000D+01 0.000000000000D+00-0.111758708954D-07 0.200000000000D+01
    0.160950000000D+06 0.400000000000D+01 0.000000000000D+00 0.000000000000D+00
 1 16 11 28 22  0  0.0 0.419719144702D-04 0.125055521494D-11 0.000000000000D+00
    0.770000000000D+02 0.222500000000D+02 0.446625746612D-08 0.124385613544D+01
    0.110641121864D-05 0.601255311631D-02 0.822171568871D-05 0.515369596672D+04
    0.165600000000D+06-0.558793544769D-08 0.741431872139D+00 0.670552253723D-07
    0.965789835423D+00 0.222906250000D+03 0.563532744806D+00-0.796997483859D-08
    0.550380068396D-09 0.100000000000D+01 0.192500000000D+04 0.000000000000D+00
    0.200000000000D+01 0.000000000000D+00 0.512227416039D-08 0.770000000000D+02
    0.159300000000D+06 0.400000000000D+01 0.000000000000D+00 0.000000000000D+00
